STARLINK-1470           
1 45772U 20038AU  26068.60892913  .00054678  00000+0  19687-2 0  9990
2 45772  53.0480 174.6971 0002444  12.8687 347.2373 15.28074860317065
STARLINK-3681           
1 51968U 22025N   26068.19709843  .00000369  00000+0  25123-4 0  9997
2 51968  53.1573  26.5377 0001542  77.2671 282.8502 15.29349023220949
